{
  "type": "FeatureCollection",
  "features": [
    {
      "type": "Feature",
      "properties": {
        "norad_id": 34918,
        "name": "COSMOS 2251 DEB",
        "group": "cosmos-2251-debris",
        "lat": 32.43888071642147,
        "lon": -22.696602129962066,
        "alt_km": 691.6103737451485,
        "timestamp": "2025-12-05T19:30:25.962509+00:00",
        "meta_object_name": "COSMOS 2251 DEB",
        "meta_object_id": "1993-036ADP",
        "meta_epoch": "2025-12-02T07:49:20.078112",
        "meta_mean_motion": 14.60858458,
        "meta_eccentricity": 0.0034182,
        "meta_inclination": 74.0712,
        "meta_ra_of_asc_node": 333.4916,
        "meta_arg_of_pericenter": 302.4495,
        "meta_mean_anomaly": 120.4085,
        "meta_ephemeris_type": 0,
        "meta_classification_type": "U",
        "meta_norad_cat_id": 34918,
        "meta_element_set_no": 999,
        "meta_rev_at_epoch": 65184,
        "meta_bstar": 0.0024749,
        "meta_mean_motion_dot": 0.00012194,
        "meta_mean_motion_ddot": 0,
        "tle_line1": "1 34918U 93036ADP 25336.32592683  .00012194  00000+0  24749-2 0  9997",
        "tle_line2": "2 34918  74.0712 333.4916 0034182 302.4495 120.4085 14.60858458651845"
      },
      "geometry": {
        "type": "Point",
        "coordinates": [
          -22.696602129962066,
          32.43888071642147
        ]
      }
    },
    {
      "type": "Feature",
      "properties": {
        "norad_id": 34924,
        "name": "COSMOS 2251 DEB",
        "group": "cosmos-2251-debris",
        "lat": 53.81466132458604,
        "lon": 125.69271970431662,
        "alt_km": 713.8231558177649,
        "timestamp": "2025-12-05T19:30:25.962520+00:00",
        "meta_object_name": "COSMOS 2251 DEB",
        "meta_object_id": "1993-036ADV",
        "meta_epoch": "2025-12-05T03:04:17.971392",
        "meta_mean_motion": 14.59906916,
        "meta_eccentricity": 0.00551206,
        "meta_inclination": 74.0402,
        "meta_ra_of_asc_node": 103.9681,
        "meta_arg_of_pericenter": 190.3489,
        "meta_mean_anomaly": 229.5741,
        "meta_ephemeris_type": 0,
        "meta_classification_type": "U",
        "meta_norad_cat_id": 34924,
        "meta_element_set_no": 999,
        "meta_rev_at_epoch": 87612,
        "meta_bstar": 0.0023760695,
        "meta_mean_motion_dot": 0.00011614,
        "meta_mean_motion_ddot": 0,
        "tle_line1": "1 34924U 93036ADV 25339.12798578  .00011614  00000+0  23761-2 0  9995",
        "tle_line2": "2 34924  74.0402 103.9681 0055120 190.3489 229.5741 14.59906916876120"
      },
      "geometry": {
        "type": "Point",
        "coordinates": [
          125.69271970431662,
          53.81466132458604
        ]
      }
    },
    {
      "type": "Feature",
      "properties": {
        "norad_id": 34944,
        "name": "COSMOS 2251 DEB",
        "group": "cosmos-2251-debris",
        "lat": -43.49257136462746,
        "lon": 80.59743438665691,
        "alt_km": 956.4065136536619,
        "timestamp": "2025-12-05T19:30:25.962531+00:00",
        "meta_object_name": "COSMOS 2251 DEB",
        "meta_object_id": "1993-036ADX",
        "meta_epoch": "2025-12-04T10:12:22.291200",
        "meta_mean_motion": 14.14155566,
        "meta_eccentricity": 0.0219658,
        "meta_inclination": 73.7499,
        "meta_ra_of_asc_node": 247.036,
        "meta_arg_of_pericenter": 96.0924,
        "meta_mean_anomaly": 266.529,
        "meta_ephemeris_type": 0,
        "meta_classification_type": "U",
        "meta_norad_cat_id": 34944,
        "meta_element_set_no": 999,
        "meta_rev_at_epoch": 63965,
        "meta_bstar": 0.0011088,
        "meta_mean_motion_dot": 2.638e-05,
        "meta_mean_motion_ddot": 0,
        "tle_line1": "1 34944U 93036ADX 25338.42525800  .00002638  00000+0  11088-2 0  9990",
        "tle_line2": "2 34944  73.7499 247.0360 0219658  96.0924 266.5290 14.14155566639655"
      },
      "geometry": {
        "type": "Point",
        "coordinates": [
          80.59743438665691,
          -43.49257136462746
        ]
      }
    },
    {
      "type": "Feature",
      "properties": {
        "norad_id": 34946,
        "name": "COSMOS 2251 DEB",
        "group": "cosmos-2251-debris",
        "lat": -31.815169139015392,
        "lon": -174.3752783307024,
        "alt_km": 685.4749527810782,
        "timestamp": "2025-12-05T19:30:25.962542+00:00",
        "meta_object_name": "COSMOS 2251 DEB",
        "meta_object_id": "1993-036ADZ",
        "meta_epoch": "2025-12-04T17:54:16.503840",
        "meta_mean_motion": 14.61930707,
        "meta_eccentricity": 0.00489502,
        "meta_inclination": 74.0233,
        "meta_ra_of_asc_node": 357.4293,
        "meta_arg_of_pericenter": 137.1209,
        "meta_mean_anomaly": 223.3792,
        "meta_ephemeris_type": 0,
        "meta_classification_type": "U",
        "meta_norad_cat_id": 34946,
        "meta_element_set_no": 999,
        "meta_rev_at_epoch": 88092,
        "meta_bstar": 0.001194522,
        "meta_mean_motion_dot": 6.058e-05,
        "meta_mean_motion_ddot": 0,
        "tle_line1": "1 34946U 93036ADZ 25338.74602435  .00006058  00000+0  11945-2 0  9999",
        "tle_line2": "2 34946  74.0233 357.4293 0048950 137.1209 223.3792 14.61930707880922"
      },
      "geometry": {
        "type": "Point",
        "coordinates": [
          -174.3752783307024,
          -31.815169139015392
        ]
      }
    },
    {
      "type": "Feature",
      "properties": {
        "norad_id": 34949,
        "name": "COSMOS 2251 DEB",
        "group": "cosmos-2251-debris",
        "lat": 8.834094393922015,
        "lon": -59.36528214562759,
        "alt_km": 658.5789822036286,
        "timestamp": "2025-12-05T19:30:25.962553+00:00",
        "meta_object_name": "COSMOS 2251 DEB",
        "meta_object_id": "1993-036AEC",
        "meta_epoch": "2025-12-05T02:26:13.832736",
        "meta_mean_motion": 14.73914183,
        "meta_eccentricity": 0.00804595,
        "meta_inclination": 74.0172,
        "meta_ra_of_asc_node": 124.5765,
        "meta_arg_of_pericenter": 271.443,
        "meta_mean_anomaly": 87.7527,
        "meta_ephemeris_type": 0,
        "meta_classification_type": "U",
        "meta_norad_cat_id": 34949,
        "meta_element_set_no": 999,
        "meta_rev_at_epoch": 88249,
        "meta_bstar": 0.0010189361,
        "meta_mean_motion_dot": 7.012e-05,
        "meta_mean_motion_ddot": 0,
        "tle_line1": "1 34949U 93036AEC 25339.10154899  .00007012  00000+0  10189-2 0  9999",
        "tle_line2": "2 34949  74.0172 124.5765 0080459 271.4430  87.7527 14.73914183882497"
      },
      "geometry": {
        "type": "Point",
        "coordinates": [
          -59.36528214562759,
          8.834094393922015
        ]
      }
    },
    {
      "type": "Feature",
      "properties": {
        "norad_id": 34953,
        "name": "COSMOS 2251 DEB",
        "group": "cosmos-2251-debris",
        "lat": -73.93736788838493,
        "lon": -41.20679038041853,
        "alt_km": 693.5241186732201,
        "timestamp": "2025-12-05T19:30:25.962563+00:00",
        "meta_object_name": "COSMOS 2251 DEB",
        "meta_object_id": "1993-036AEG",
        "meta_epoch": "2025-12-04T21:32:32.080128",
        "meta_mean_motion": 14.68848312,
        "meta_eccentricity": 0.0057673,
        "meta_inclination": 74.0936,
        "meta_ra_of_asc_node": 42.6171,
        "meta_arg_of_pericenter": 37.0776,
        "meta_mean_anomaly": 78.1748,
        "meta_ephemeris_type": 0,
        "meta_classification_type": "U",
        "meta_norad_cat_id": 34953,
        "meta_element_set_no": 999,
        "meta_rev_at_epoch": 88013,
        "meta_bstar": 0.0018269,
        "meta_mean_motion_dot": 0.00010934,
        "meta_mean_motion_ddot": 0,
        "tle_line1": "1 34953U 93036AEG 25338.89759352  .00010934  00000+0  18269-2 0  9998",
        "tle_line2": "2 34953  74.0936  42.6171 0057673  37.0776  78.1748 14.68848312880134"
      },
      "geometry": {
        "type": "Point",
        "coordinates": [
          -41.20679038041853,
          -73.93736788838493
        ]
      }
    },
    {
      "type": "Feature",
      "properties": {
        "norad_id": 34955,
        "name": "COSMOS 2251 DEB",
        "group": "cosmos-2251-debris",
        "lat": -18.279553923587944,
        "lon": -104.83096211753423,
        "alt_km": 517.101073340651,
        "timestamp": "2025-12-05T19:30:25.962573+00:00",
        "meta_object_name": "COSMOS 2251 DEB",
        "meta_object_id": "1993-036AEJ",
        "meta_epoch": "2025-12-03T01:58:24.293568",
        "meta_mean_motion": 15.00189355,
        "meta_eccentricity": 0.00783052,
        "meta_inclination": 74.0373,
        "meta_ra_of_asc_node": 266.1437,
        "meta_arg_of_pericenter": 338.174,
        "meta_mean_anomaly": 21.6115,
        "meta_ephemeris_type": 0,
        "meta_classification_type": "U",
        "meta_norad_cat_id": 34955,
        "meta_element_set_no": 999,
        "meta_rev_at_epoch": 89889,
        "meta_bstar": 0.0013091752,
        "meta_mean_motion_dot": 0.00017463,
        "meta_mean_motion_ddot": 0,
        "tle_line1": "1 34955U 93036AEJ 25337.08222562  .00017463  00000+0  13092-2 0  9991",
        "tle_line2": "2 34955  74.0373 266.1437 0078305 338.1740  21.6115 15.00189355898895"
      },
      "geometry": {
        "type": "Point",
        "coordinates": [
          -104.83096211753423,
          -18.279553923587944
        ]
      }
    }
  ]
}